STARLINK-34733          
1 66487U 25263C   25341.00002315 -.02047180  00000+0 -31980-1 0  9990
2 66487  42.9997 158.7606 0001492 270.6481 324.9672 15.56105124  4715
STARLINK-35515          
1 66488U 25263D   25341.00002315 -.02048021  00000+0 -31994-1 0  9991
2 66488  42.9998 158.7553 0001484 266.9391 330.5933 15.56105937  4712
STARLINK-35696          
1 66489U 25263E   25341.00002315 -.02040209  00000+0 -31863-1 0  9997
2 66489  42.9998 158.7503 0001695 267.8647 331.5887 15.56098648  4715
STARLINK-35693          
1 66490U 25263F   25341.00002315 -.02042709  00000+0 -31906-1 0  9994
2 66490  42.9998 158.7454 0001518 265.2429 336.1263 15.56101679  4714
STARLINK-35663          
1 66491U 25263G   25341.00002315 -.02045405  00000+0 -31949-1 0  9998
2 66491  42.9999 158.7357 0001584 268.6959 336.5057 15.56103927  4719
STARLINK-35673          
1 66492U 25263H   25341.00002315 -.02043070  00000+0 -31910-1 0  9993
2 66492  42.9999 158.7308 0001683 267.5226 339.5968 15.56101963  4713
STARLINK-35597          
1 66493U 25263J   25341.00002315 -.02044478  00000+0 -31933-1 0  9992
2 66493  43.0000 158.7256 0001547 268.9866 340.0497 15.56104323  4712
STARLINK-35689          
1 66494U 25263K   25341.00002315 -.01957005  00000+0 -31094-1 0  9999
2 66494  42.9998 158.7408 0001585 255.8373 347.4799 15.56057353  4712
STARLINK-35832          
1 66495U 25263L   25341.00002315 -.02045225  00000+0 -31949-1 0  9992
2 66495  42.9998 158.7210 0001520 269.5220 341.4331 15.56102569  4712
STARLINK-35909          
1 66496U 25263M   25341.00002315 -.02039465  00000+0 -31849-1 0  9991
2 66496  43.0000 158.7160 0001565 273.4537 339.4174 15.56101303  4714
STARLINK-35899          
1 66497U 25263N   25341.00002315 -.02047845  00000+0 -31990-1 0  9990
2 66497  42.9997 158.7109 0001618 269.8043 344.9813 15.56105646  4716
STARLINK-35907          
1 66498U 25263P   25341.00002315 -.02041867  00000+0 -31890-1 0  9998
2 66498  43.0000 158.7058 0001580 272.6282 344.0775 15.56101931  4713
