CCSDS_OMM_VERS = 2.0
CREATION_DATE  = 
ORIGINATOR     = 

OBJECT_NAME    = STARLINK-34733
OBJECT_ID      = 2025-263C
CENTER_NAME    = EARTH
REF_FRAME      = TEME
TIME_SYSTEM    = UTC
MEAN_ELEMENT_THEORY = SGP/SGP4

EPOCH          = 2025-12-07T00:00:02.000160
MEAN_MOTION    = 15.56105124
ECCENTRICITY   = .00014924
INCLINATION    = 42.9997
RA_OF_ASC_NODE = 158.7606
ARG_OF_PERICENTER = 270.6481
MEAN_ANOMALY   = 324.9672

EPHEMERIS_TYPE = 0
CLASSIFICATION_TYPE = U
NORAD_CAT_ID   = 66487
ELEMENT_SET_NO = 999
REV_AT_EPOCH   = 471
BSTAR          = -.31979964E-1
MEAN_MOTION_DOT = -.204718E-1
MEAN_MOTION_DDOT = 0

CCSDS_OMM_VERS = 2.0
CREATION_DATE  = 
ORIGINATOR     = 

OBJECT_NAME    = STARLINK-35515
OBJECT_ID      = 2025-263D
CENTER_NAME    = EARTH
REF_FRAME      = TEME
TIME_SYSTEM    = UTC
MEAN_ELEMENT_THEORY = SGP/SGP4

EPOCH          = 2025-12-07T00:00:02.000160
MEAN_MOTION    = 15.56105937
ECCENTRICITY   = .00014849
INCLINATION    = 42.9998
RA_OF_ASC_NODE = 158.7553
ARG_OF_PERICENTER = 266.9391
MEAN_ANOMALY   = 330.5933

EPHEMERIS_TYPE = 0
CLASSIFICATION_TYPE = U
NORAD_CAT_ID   = 66488
ELEMENT_SET_NO = 999
REV_AT_EPOCH   = 471
BSTAR          = -.31993784E-1
MEAN_MOTION_DOT = -.2048021E-1
MEAN_MOTION_DDOT = 0

CCSDS_OMM_VERS = 2.0
CREATION_DATE  = 
ORIGINATOR     = 

OBJECT_NAME    = STARLINK-35696
OBJECT_ID      = 2025-263E
CENTER_NAME    = EARTH
REF_FRAME      = TEME
TIME_SYSTEM    = UTC
MEAN_ELEMENT_THEORY = SGP/SGP4

EPOCH          = 2025-12-07T00:00:02.000160
MEAN_MOTION    = 15.56098648
ECCENTRICITY   = .00016955
INCLINATION    = 42.9998
RA_OF_ASC_NODE = 158.7503
ARG_OF_PERICENTER = 267.8647
MEAN_ANOMALY   = 331.5887

EPHEMERIS_TYPE = 0
CLASSIFICATION_TYPE = U
NORAD_CAT_ID   = 66489
ELEMENT_SET_NO = 999
REV_AT_EPOCH   = 471
BSTAR          = -.31863487E-1
MEAN_MOTION_DOT = -.2040209E-1
MEAN_MOTION_DDOT = 0

CCSDS_OMM_VERS = 2.0
CREATION_DATE  = 
ORIGINATOR     = 

OBJECT_NAME    = STARLINK-35693
OBJECT_ID      = 2025-263F
CENTER_NAME    = EARTH
REF_FRAME      = TEME
TIME_SYSTEM    = UTC
MEAN_ELEMENT_THEORY = SGP/SGP4

EPOCH          = 2025-12-07T00:00:02.000160
MEAN_MOTION    = 15.56101679
ECCENTRICITY   = .00015186
INCLINATION    = 42.9998
RA_OF_ASC_NODE = 158.7454
ARG_OF_PERICENTER = 265.2429
MEAN_ANOMALY   = 336.1263

EPHEMERIS_TYPE = 0
CLASSIFICATION_TYPE = U
NORAD_CAT_ID   = 66490
ELEMENT_SET_NO = 999
REV_AT_EPOCH   = 471
BSTAR          = -.31905579E-1
MEAN_MOTION_DOT = -.2042709E-1
MEAN_MOTION_DDOT = 0

CCSDS_OMM_VERS = 2.0
CREATION_DATE  = 
ORIGINATOR     = 

OBJECT_NAME    = STARLINK-35663
OBJECT_ID      = 2025-263G
CENTER_NAME    = EARTH
REF_FRAME      = TEME
TIME_SYSTEM    = UTC
MEAN_ELEMENT_THEORY = SGP/SGP4

EPOCH          = 2025-12-07T00:00:02.000160
MEAN_MOTION    = 15.56103927
ECCENTRICITY   = .00015849
INCLINATION    = 42.9999
RA_OF_ASC_NODE = 158.7357
ARG_OF_PERICENTER = 268.6959
MEAN_ANOMALY   = 336.5057

EPHEMERIS_TYPE = 0
CLASSIFICATION_TYPE = U
NORAD_CAT_ID   = 66491
ELEMENT_SET_NO = 999
REV_AT_EPOCH   = 471
BSTAR          = -.31949295E-1
MEAN_MOTION_DOT = -.2045405E-1
MEAN_MOTION_DDOT = 0

CCSDS_OMM_VERS = 2.0
CREATION_DATE  = 
ORIGINATOR     = 

OBJECT_NAME    = STARLINK-35673
OBJECT_ID      = 2025-263H
CENTER_NAME    = EARTH
REF_FRAME      = TEME
TIME_SYSTEM    = UTC
MEAN_ELEMENT_THEORY = SGP/SGP4

EPOCH          = 2025-12-07T00:00:02.000160
MEAN_MOTION    = 15.56101963
ECCENTRICITY   = .00016836
INCLINATION    = 42.9999
RA_OF_ASC_NODE = 158.7308
ARG_OF_PERICENTER = 267.5226
MEAN_ANOMALY   = 339.5968

EPHEMERIS_TYPE = 0
CLASSIFICATION_TYPE = U
NORAD_CAT_ID   = 66492
ELEMENT_SET_NO = 999
REV_AT_EPOCH   = 471
BSTAR          = -.31909687E-1
MEAN_MOTION_DOT = -.204307E-1
MEAN_MOTION_DDOT = 0

CCSDS_OMM_VERS = 2.0
CREATION_DATE  = 
ORIGINATOR     = 

OBJECT_NAME    = STARLINK-35597
OBJECT_ID      = 2025-263J
CENTER_NAME    = EARTH
REF_FRAME      = TEME
TIME_SYSTEM    = UTC
MEAN_ELEMENT_THEORY = SGP/SGP4

EPOCH          = 2025-12-07T00:00:02.000160
MEAN_MOTION    = 15.56104323
ECCENTRICITY   = .00015472
INCLINATION    = 43.0000
RA_OF_ASC_NODE = 158.7256
ARG_OF_PERICENTER = 268.9866
MEAN_ANOMALY   = 340.0497

EPHEMERIS_TYPE = 0
CLASSIFICATION_TYPE = U
NORAD_CAT_ID   = 66493
ELEMENT_SET_NO = 999
REV_AT_EPOCH   = 471
BSTAR          = -.31933039E-1
MEAN_MOTION_DOT = -.2044478E-1
MEAN_MOTION_DDOT = 0

CCSDS_OMM_VERS = 2.0
CREATION_DATE  = 
ORIGINATOR     = 

OBJECT_NAME    = STARLINK-35689
OBJECT_ID      = 2025-263K
CENTER_NAME    = EARTH
REF_FRAME      = TEME
TIME_SYSTEM    = UTC
MEAN_ELEMENT_THEORY = SGP/SGP4

EPOCH          = 2025-12-07T00:00:02.000160
MEAN_MOTION    = 15.56057353
ECCENTRICITY   = .00015851
INCLINATION    = 42.9998
RA_OF_ASC_NODE = 158.7408
ARG_OF_PERICENTER = 255.8373
MEAN_ANOMALY   = 347.4799

EPHEMERIS_TYPE = 0
CLASSIFICATION_TYPE = U
NORAD_CAT_ID   = 66494
ELEMENT_SET_NO = 999
REV_AT_EPOCH   = 471
BSTAR          = -.31094254E-1
MEAN_MOTION_DOT = -.1957005E-1
MEAN_MOTION_DDOT = 0

CCSDS_OMM_VERS = 2.0
CREATION_DATE  = 
ORIGINATOR     = 

OBJECT_NAME    = STARLINK-35832
OBJECT_ID      = 2025-263L
CENTER_NAME    = EARTH
REF_FRAME      = TEME
TIME_SYSTEM    = UTC
MEAN_ELEMENT_THEORY = SGP/SGP4

EPOCH          = 2025-12-07T00:00:02.000160
MEAN_MOTION    = 15.56102569
ECCENTRICITY   = .00015204
INCLINATION    = 42.9998
RA_OF_ASC_NODE = 158.7210
ARG_OF_PERICENTER = 269.5220
MEAN_ANOMALY   = 341.4331

EPHEMERIS_TYPE = 0
CLASSIFICATION_TYPE = U
NORAD_CAT_ID   = 66495
ELEMENT_SET_NO = 999
REV_AT_EPOCH   = 471
BSTAR          = -.31948508E-1
MEAN_MOTION_DOT = -.2045225E-1
MEAN_MOTION_DDOT = 0

CCSDS_OMM_VERS = 2.0
CREATION_DATE  = 
ORIGINATOR     = 

OBJECT_NAME    = STARLINK-35909
OBJECT_ID      = 2025-263M
CENTER_NAME    = EARTH
REF_FRAME      = TEME
TIME_SYSTEM    = UTC
MEAN_ELEMENT_THEORY = SGP/SGP4

EPOCH          = 2025-12-07T00:00:02.000160
MEAN_MOTION    = 15.56101303
ECCENTRICITY   = .00015654
INCLINATION    = 43.0000
RA_OF_ASC_NODE = 158.7160
ARG_OF_PERICENTER = 273.4537
MEAN_ANOMALY   = 339.4174

EPHEMERIS_TYPE = 0
CLASSIFICATION_TYPE = U
NORAD_CAT_ID   = 66496
ELEMENT_SET_NO = 999
REV_AT_EPOCH   = 471
BSTAR          = -.31848808E-1
MEAN_MOTION_DOT = -.2039465E-1
MEAN_MOTION_DDOT = 0

CCSDS_OMM_VERS = 2.0
CREATION_DATE  = 
ORIGINATOR     = 

OBJECT_NAME    = STARLINK-35899
OBJECT_ID      = 2025-263N
CENTER_NAME    = EARTH
REF_FRAME      = TEME
TIME_SYSTEM    = UTC
MEAN_ELEMENT_THEORY = SGP/SGP4

EPOCH          = 2025-12-07T00:00:02.000160
MEAN_MOTION    = 15.56105646
ECCENTRICITY   = .00016181
INCLINATION    = 42.9997
RA_OF_ASC_NODE = 158.7109
ARG_OF_PERICENTER = 269.8043
MEAN_ANOMALY   = 344.9813

EPHEMERIS_TYPE = 0
CLASSIFICATION_TYPE = U
NORAD_CAT_ID   = 66497
ELEMENT_SET_NO = 999
REV_AT_EPOCH   = 471
BSTAR          = -.31989531E-1
MEAN_MOTION_DOT = -.2047845E-1
MEAN_MOTION_DDOT = 0

CCSDS_OMM_VERS = 2.0
CREATION_DATE  = 
ORIGINATOR     = 

OBJECT_NAME    = STARLINK-35907
OBJECT_ID      = 2025-263P
CENTER_NAME    = EARTH
REF_FRAME      = TEME
TIME_SYSTEM    = UTC
MEAN_ELEMENT_THEORY = SGP/SGP4

EPOCH          = 2025-12-07T00:00:02.000160
MEAN_MOTION    = 15.56101931
ECCENTRICITY   = .000158
INCLINATION    = 43.0000
RA_OF_ASC_NODE = 158.7058
ARG_OF_PERICENTER = 272.6282
MEAN_ANOMALY   = 344.0775

EPHEMERIS_TYPE = 0
CLASSIFICATION_TYPE = U
NORAD_CAT_ID   = 66498
ELEMENT_SET_NO = 999
REV_AT_EPOCH   = 471
BSTAR          = -.31889878E-1
MEAN_MOTION_DOT = -.2041867E-1
MEAN_MOTION_DDOT = 0

